{"type": "FeatureCollection", "features": [ {"type": "Feature", "properties": {"norad_id": 30960, "name": "FENGYUN 1C DEB", "group": "fengyun-1c-debris", "lat": 75.17916099543288, "lon": 57.408712892198515, "alt_km": 705.3893642895782, "timestamp": "2025-12-04T23:34:06.002385+00:00", "meta": {"OBJECT_NAME": "FENGYUN 1C DEB", "OBJECT_ID": "1999-025BBA", "EPOCH": "2025-12-04T13:22:39.779904", "MEAN_MOTION": 14.66591263, "ECCENTRICITY": 0.0196074, "INCLINATION": 99.0009, "RA_OF_ASC_NODE": 93.744, "ARG_OF_PERICENTER": 187.6876, "MEAN_ANOMALY": 172.1309, "EPHEMERIS_TYPE": 0, "CLASSIFICATION_TYPE": "U", "NORAD_CAT_ID": 30960, "ELEMENT_SET_NO": 999, "REV_AT_EPOCH": 98578, "BSTAR": 0.003317, "MEAN_MOTION_DOT": 0.00024577, "MEAN_MOTION_DDOT": 0}, "tle": {"line1": "1 30960U 99025BBA 25338.55740486  .00024577  00000+0  33170-2 0  9993", "line2": "2 30960  99.0009  93.7440 0196074 187.6876 172.1309 14.66591263985787"}}, "geometry": {"type": "Point", "coordinates": [57.408712892198515, 75.17916099543288]}}, {"type": "Feature", "properties": {"norad_id": 30967, "name": "FENGYUN 1C DEB", "group": "fengyun-1c-debris", "lat": -36.253068470542715, "lon": 98.30350689954807, "alt_km": 663.0238075502002, "timestamp": "2025-12-04T23:34:06.002394+00:00", "meta": {"OBJECT_NAME": "FENGYUN 1C DEB", "OBJECT_ID": "1999-025BBH", "EPOCH": "2025-12-02T19:28:31.282752", "MEAN_MOTION": 14.57001959, "ECCENTRICITY": 0.00949855, "INCLINATION": 98.7625, "RA_OF_ASC_NODE": 282.5159, "ARG_OF_PERICENTER": 270.4458, "MEAN_ANOMALY": 88.5855, "EPHEMERIS_TYPE": 0, "CLASSIFICATION_TYPE": "U", "NORAD_CAT_ID": 30967, "ELEMENT_SET_NO": 999, "REV_AT_EPOCH": 98869, "BSTAR": 0.0013117286, "MEAN_MOTION_DOT": 6.22e-05, "MEAN_MOTION_DDOT": 0}, "tle": {"line1": "1 30967U 99025BBH 25336.81147318  .00006220  00000+0  13117-2 0  9996", "line2": "2 30967  98.7625 282.5159 0094985 270.4458  88.5855 14.57001959988691"}}, "geometry": {"type": "Point", "coordinates": [98.30350689954807, -36.253068470542715]}}, {"type": "Feature", "properties": {"norad_id": 30971, "name": "FENGYUN 1C DEB", "group": "fengyun-1c-debris", "lat": 15.831585487430122, "lon": 19.176692199942014, "alt_km": 765.3738062672755, "timestamp": "2025-12-04T23:34:06.002404+00:00", "meta": {"OBJECT_NAME": "FENGYUN 1C DEB", "OBJECT_ID": "1999-025BBM", "EPOCH": "2025-12-03T02:03:16.628832", "MEAN_MOTION": 14.71558053, "ECCENTRICITY": 0.01637066, "INCLINATION": 99.2113, "RA_OF_ASC_NODE": 19.6692, "ARG_OF_PERICENTER": 221.0179, "MEAN_ANOMALY": 193.8731, "EPHEMERIS_TYPE": 0, "CLASSIFICATION_TYPE": "U", "NORAD_CAT_ID": 30971, "ELEMENT_SET_NO": 999, "REV_AT_EPOCH": 99575, "BSTAR": 0.00085353718, "MEAN_MOTION_DOT": 6.475e-05, "MEAN_MOTION_DDOT": 0}, "tle": {"line1": "1 30971U 99025BBM 25337.08560913  .00006475  00000+0  85354-3 0  9996", "line2": "2 30971  99.2113  19.6692 0163706 221.0179 193.8731 14.71558053995751"}}, "geometry": {"type": "Point", "coordinates": [19.176692199942014, 15.831585487430122]}}, {"type": "Feature", "properties": {"norad_id": 30979, "name": "FENGYUN 1C DEB", "group": "fengyun-1c-debris", "lat": -53.641856596238824, "lon": 46.8548197885577, "alt_km": 527.1607408788477, "timestamp": "2025-12-04T23:34:06.002414+00:00", "meta": {"OBJECT_NAME": "FENGYUN 1C DEB", "OBJECT_ID": "1999-025BBV", "EPOCH": "2025-12-02T04:36:50.855328", "MEAN_MOTION": 14.78416107, "ECCENTRICITY": 0.01913935, "INCLINATION": 97.83, "RA_OF_ASC_NODE": 234.9135, "ARG_OF_PERICENTER": 275.775, "MEAN_ANOMALY": 240.4379, "EPHEMERIS_TYPE": 0, "CLASSIFICATION_TYPE": "U", "NORAD_CAT_ID": 30979, "ELEMENT_SET_NO": 999, "REV_AT_EPOCH": 98989, "BSTAR": 0.0013589928, "MEAN_MOTION_DOT": 0.00013437, "MEAN_MOTION_DDOT": 0}, "tle": {"line1": "1 30979U 99025BBV 25336.19225527  .00013437  00000+0  13590-2 0  9992", "line2": "2 30979  97.8300 234.9135 0191393 275.7750 240.4379 14.78416107989894"}}, "geometry": {"type": "Point", "coordinates": [46.8548197885577, -53.641856596238824]}}, {"type": "Feature", "properties": {"norad_id": 30982, "name": "FENGYUN 1C DEB", "group": "fengyun-1c-debris", "lat": 34.280337799052795, "lon": 155.0444135413394, "alt_km": 846.5379284240998, "timestamp": "2025-12-04T23:34:06.002425+00:00", "meta": {"OBJECT_NAME": "FENGYUN 1C DEB", "OBJECT_ID": "1999-025BBY", "EPOCH": "2025-12-04T06:24:36.937152", "MEAN_MOTION": 14.50900572, "ECCENTRICITY": 0.0181144, "INCLINATION": 98.2152, "RA_OF_ASC_NODE": 328.6945, "ARG_OF_PERICENTER": 338.7, "MEAN_ANOMALY": 34.1018, "EPHEMERIS_TYPE": 0, "CLASSIFICATION_TYPE": "U", "NORAD_CAT_ID": 30982, "ELEMENT_SET_NO": 999, "REV_AT_EPOCH": 70931, "BSTAR": 0.00077704, "MEAN_MOTION_DOT": 3.741e-05, "MEAN_MOTION_DDOT": 0}, "tle": {"line1": "1 30982U 99025BBY 25338.26709418  .00003741  00000+0  77704-3 0  9997", "line2": "2 30982  98.2152 328.6945 0181144 338.7000  34.1018 14.50900572709318"}}, "geometry": {"type": "Point", "coordinates": [155.0444135413394, 34.280337799052795]}}, {"type": "Feature", "properties": {"norad_id": 30984, "name": "FENGYUN 1C DEB", "group": "fengyun-1c-debris", "lat": 36.76477966251804, "lon": 9.228359536485213, "alt_km": 631.2707611441065, "timestamp": "2025-12-04T23:34:06.002434+00:00", "meta": {"OBJECT_NAME": "FENGYUN 1C DEB", "OBJECT_ID": "1999-025BCA", "EPOCH": "2025-12-03T01:02:26.854368", "MEAN_MOTION": 14.50329769, "ECCENTRICITY": 0.01281668, "INCLINATION": 98.2653, "RA_OF_ASC_NODE": 13.5601, "ARG_OF_PERICENTER": 37.7619, "MEAN_ANOMALY": 323.2485, "EPHEMERIS_TYPE": 0, "CLASSIFICATION_TYPE": "U", "NORAD_CAT_ID": 30984, "ELEMENT_SET_NO": 999, "REV_AT_EPOCH": 95023, "BSTAR": 0.00098864934, "MEAN_MOTION_DOT": 4.238e-05, "MEAN_MOTION_DDOT": 0}, "tle": {"line1": "1 30984U 99025BCA 25337.04336637  .00004238  00000+0  98865-3 0  9996", "line2": "2 30984  98.2653  13.5601 0128166  37.7619 323.2485 14.50329769950234"}}, "geometry": {"type": "Point", "coordinates": [9.228359536485213, 36.76477966251804]}}, {"type": "Feature", "properties": {"norad_id": 30988, "name": "FENGYUN 1C DEB", "group": "fengyun-1c-debris", "lat": 65.47524066937801, "lon": -93.98090109069685, "alt_km": 444.4257835169474, "timestamp": "2025-12-04T23:34:06.002444+00:00", "meta": {"OBJECT_NAME": "FENGYUN 1C DEB", "OBJECT_ID": "1999-025BCE", "EPOCH": "2025-12-03T07:54:06.145920", "MEAN_MOTION": 15.24405925, "ECCENTRICITY": 0.0119062, "INCLINATION": 98.5424, "RA_OF_ASC_NODE": 283.3715, "ARG_OF_PERICENTER": 12.1711, "MEAN_ANOMALY": 348.2354, "EPHEMERIS_TYPE": 0, "CLASSIFICATION_TYPE": "U", "NORAD_CAT_ID": 30988, "ELEMENT_SET_NO": 999, "REV_AT_EPOCH": 99420, "BSTAR": 0.0027943, "MEAN_MOTION_DOT": 0.00084539, "MEAN_MOTION_DDOT": 0}, "tle": {"line1": "1 30988U 99025BCE 25337.32923780  .00084539  00000+0  27943-2 0  9992", "line2": "2 30988  98.5424 283.3715 0119062  12.1711 348.2354 15.24405925994203"}}, "geometry": {"type": "Point", "coordinates": [-93.98090109069685, 65.47524066937801]}}, {"type": "Feature", "properties": {"norad_id": 30989, "name": "FENGYUN 1C DEB", "group": "fengyun-1c-debris", "lat": 71.16741176698913, "lon": 24.575437456546197, "alt_km": 794.4955230940895, "timestamp": "2025-12-04T23:34:06.002454+00:00", "meta": {"OBJECT_NAME": "FENGYUN 1C DEB", "OBJECT_ID": "1999-025BCF", "EPOCH": "2025-12-02T21:58:05.055456", "MEAN_MOTION": 14.13841846, "ECCENTRICITY": 0.00920392, "INCLINATION": 99.0546, "RA_OF_ASC_NODE": 50.3579, "ARG_OF_PERICENTER": 127.3294, "MEAN_ANOMALY": 233.6309, "EPHEMERIS_TYPE": 0, "CLASSIFICATION_TYPE": "U", "NORAD_CAT_ID": 30989, "ELEMENT_SET_NO": 999, "REV_AT_EPOCH": 95849, "BSTAR": 0.0021362586, "MEAN_MOTION_DOT": 4.171e-05, "MEAN_MOTION_DDOT": 0}, "tle": {"line1": "1 30989U 99025BCF 25336.91533629  .00004171  00000+0  21363-2 0  9990", "line2": "2 30989  99.0546  50.3579 0092039 127.3294 233.6309 14.13841846958495"}}, "geometry": {"type": "Point", "coordinates": [24.575437456546197, 71.16741176698913]}}, {"type": "Feature", "properties": {"norad_id": 30993, "name": "FENGYUN 1C DEB", "group": "fengyun-1c-debris", "lat": 46.12681530716493, "lon": -99.44829826749582, "alt_km": 770.789992043332, "timestamp": "2025-12-04T23:34:06.002464+00:00", "meta": {"OBJECT_NAME": "FENGYUN 1C DEB", "OBJECT_ID": "1999-025BCK", "EPOCH": "2025-12-04T16:59:35.587392", "MEAN_MOTION": 14.35292878, "ECCENTRICITY": 0.0016602, "INCLINATION": 98.8474, "RA_OF_ASC_NODE": 70.9476, "ARG_OF_PERICENTER": 40.0188, "MEAN_ANOMALY": 118.0861, "EPHEMERIS_TYPE": 0, "CLASSIFICATION_TYPE": "U", "NORAD_CAT_ID": 30993, "ELEMENT_SET_NO": 999, "REV_AT_EPOCH": 96804, "BSTAR": 0.0046327, "MEAN_MOTION_DOT": 0.0001327, "MEAN_MOTION_DDOT": 0}, "tle": {"line1": "1 30993U 99025BCK 25338.70805078  .00013270  00000+0  46327-2 0  9991", "line2": "2 30993  98.8474  70.9476 0016602  40.0188 118.0861 14.35292878968046"}}, "geometry": {"type": "Point", "coordinates": [-99.44829826749582, 46.12681530716493]}}, {"type": "Feature", "properties": {"norad_id": 30994, "name": "FENGYUN 1C DEB", "group": "fengyun-1c-debris", "lat": 69.4379682590502, "lon": -168.24656590785253, "alt_km": 846.1525876289443, "timestamp": "2025-12-04T23:34:06.002474+00:00", "meta": {"OBJECT_NAME": "FENGYUN 1C DEB", "OBJECT_ID": "1999-025BCL", "EPOCH": "2025-12-04T07:44:44.291040", "MEAN_MOTION": 14.11763452, "ECCENTRICITY": 0.0017406, "INCLINATION": 98.7003, "RA_OF_ASC_NODE": 347.0223, "ARG_OF_PERICENTER": 198.7182, "MEAN_ANOMALY": 161.3352, "EPHEMERIS_TYPE": 0, "CLASSIFICATION_TYPE": "U", "NORAD_CAT_ID": 30994, "ELEMENT_SET_NO": 999, "REV_AT_EPOCH": 96466, "BSTAR": 0.00029444, "MEAN_MOTION_DOT": 4.95e-06, "MEAN_MOTION_DDOT": 0}, "tle": {"line1": "1 30994U 99025BCL 25338.32273485  .00000495  00000+0  29444-3 0  9998", "line2": "2 30994  98.7003 347.0223 0017406 198.7182 161.3352 14.11763452964665"}}, "geometry": {"type": "Point", "coordinates": [-168.24656590785253, 69.4379682590502]}}]}